OBJECT_NAME,OBJECT_ID,EPOCH,MEAN_MOTION,ECCENTRICITY,INCLINATION,RA_OF_ASC_NODE,ARG_OF_PERICENTER,MEAN_ANOMALY,EPHEMERIS_TYPE,CLASSIFICATION_TYPE,NORAD_CAT_ID,ELEMENT_SET_NO,REV_AT_EPOCH,BSTAR,MEAN_MOTION_DOT,MEAN_MOTION_DDOT
FORMOSAT 7-6,2019-036Q,2026-07-14T00:40:33.752352,14.96610179,.000131,23.9965,148.6575,63.5589,296.5046,0,U,44353,999,38584,.99587E-4,.1465E-4,0
FORMOSAT 7-5,2019-036V,2026-07-14T00:08:03.752736,14.96589152,.0000433,23.9985,87.5620,125.4285,234.6256,0,U,44358,999,38637,.10448E-3,.1521E-4,0
METEOR-M2 2,2019-038A,2026-07-14T03:34:23.556000,14.24373615,.0000808,98.9152,182.8340,6.1083,354.0105,0,U,44387,999,36513,.1298E-3,.254E-5,0
GLOBAL-4,2019-054E,2026-07-13T22:31:05.517984,15.66983770,.0005181,45.0060,81.7484,188.4119,171.6693,0,U,44499,999,38455,.34698E-3,.37606E-3,0
ZY-1 02D,2019-059A,2026-07-14T04:28:14.477088,14.35267739,.0003149,98.6720,256.7368,303.0974,56.9908,0,U,44528,999,35821,-.25469E-4,-.118E-5,0
TAURUS-1 (JINNIUZUO 1),2019-059C,2026-07-14T03:45:31.090176,14.72361952,.0007942,98.6426,1.6655,218.9233,141.1402,0,U,44530,999,36261,.51154E-3,.3183E-4,0
ZHUHAI-1 03B,2019-060C,2026-07-14T05:07:09.729984,15.55592614,.0008341,97.5548,354.4727,208.9707,151.1085,0,U,44536,999,38052,.30082E-3,.20556E-3,0
ZHUHAI-1 03D,2019-060E,2026-07-14T04:47:41.917344,15.51301697,.0007393,97.5395,346.3428,194.6859,165.4179,0,U,44538,999,38026,.39623E-3,.2321E-3,0
ZHUHAI-1 03E,2019-060F,2026-07-14T04:23:22.121952,15.41901137,.0004382,97.5638,346.0876,281.1037,78.9717,0,U,44539,999,37992,.25393E-3,.10703E-3,0
GAOFEN-7,2019-072A,2026-07-14T03:58:22.960128,15.21510390,.0017499,97.5708,255.8943,307.7995,52.1656,0,U,44703,999,37174,.1032E-3,.2258E-4,0
JILIN-1 GAOFEN 2A,2019-075A,2026-07-14T04:06:55.073664,15.39997550,.0005275,97.4968,279.6041,358.9588,1.1645,0,U,44777,999,36903,.22065E-3,.872E-4,0
NINGXIA-1 1,2019-076A,2026-07-14T04:31:04.687680,14.02041901,.0011574,45.0065,59.1883,285.2129,74.7426,0,U,44779,999,34164,.33781E-4,-.78E-6,0
NINGXIA-1 5,2019-076E,2026-07-14T04:48:52.737696,14.02090392,.001142,45.0065,58.4659,276.0093,83.9439,0,U,44783,999,34156,.96921E-4,.19E-6,0
KL-ALPHA A,2019-077A,2026-07-14T04:48:34.075296,13.56045688,.0012502,88.9235,219.6101,39.3359,320.8701,0,U,44785,999,32939,.10261E-3,.84E-6,0
CARTOSAT-3,2019-081A,2026-07-13T18:23:03.776352,15.19319394,.0013222,97.4302,256.2032,65.4929,294.7683,0,U,44804,999,36750,.13459E-3,.278E-4,0
JILIN-1 GAOFEN 2B,2019-086A,2026-07-14T04:31:45.662880,15.20992926,.0013164,97.4876,267.0136,219.4985,140.5292,0,U,44836,999,36459,.14907E-3,.3241E-4,0
TIANQIN 1 (CAS-6),2019-093A,2026-07-14T04:29:40.965216,14.95558012,.0010035,97.7812,278.8329,331.4463,28.6207,0,U,44879,999,35608,.18182E-3,.196E-4,0
ETRSS-1,2019-093B,2026-07-14T04:28:03.526752,14.96005381,.0010137,97.7829,279.3150,331.3510,28.7153,0,U,44880,999,35609,.19236E-3,.2101E-4,0
TIANYAN 01,2019-093C,2026-07-14T04:06:42.376320,14.86562658,.0013683,97.7531,266.7442,5.1756,354.9598,0,U,44881,999,35542,.11955E-3,.1007E-4,0
TIANYAN 02,2019-093D,2026-07-14T05:44:23.934624,15.05525858,.0012145,97.7942,290.2948,292.3484,67.6455,0,U,44882,999,35668,.21164E-3,.2985E-4,0
CBERS 4A,2019-093E,2026-07-14T04:11:36.828384,14.81443737,.0001405,98.0189,262.6365,132.4366,227.6965,0,U,44883,999,35507,.50765E-4,.344E-5,0
WEILAI 1R,2019-093F,2026-07-14T04:35:08.911968,15.00862610,.0015649,97.7896,285.1252,311.7083,48.2801,0,U,44884,999,35647,.21505E-3,.268E-4,0
FLORIPASAT-1,2019-093G,2026-07-14T05:40:48.502272,15.04137588,.001089,97.7935,289.6715,345.7424,14.3492,0,U,44885,999,35671,.15586E-3,.21E-4,0
SHUNTIAN,2019-093H,2026-07-14T04:15:15.346944,14.95274659,.0011061,97.8011,283.2014,340.8599,19.2205,0,U,44886,999,35621,.10998E-3,.1153E-4,0
ELEKTRO-L 3,2019-095A,2026-07-14T00:47:21.556032,1.00271062,.0001114,0.3229,82.1013,20.0512,277.5742,0,U,44903,999,2397,0,-.102E-5,0
GONETS-M 14,2019-096A,2026-07-14T04:13:34.258080,12.42870824,.0014416,82.5227,67.9076,92.5080,267.7650,0,U,44905,999,29703,.52038E-3,.82E-6,0
GONETS-M 15,2019-096B,2026-07-14T02:59:53.850048,12.42883102,.0016062,82.5247,68.4051,114.3904,245.8854,0,U,44906,999,29699,.47319E-3,.76E-6,0
GONETS-M 16,2019-096C,2026-07-14T03:37:04.310112,12.42892611,.001097,82.5192,67.3287,153.5294,206.6348,0,U,44907,999,29698,.73253E-3,.111E-5,0
