FORMOSAT 7-6            
1 44353U 19036Q   26195.02816843  .00001465  00000+0  99587-4 0  9990
2 44353  23.9965 148.6575 0001310  63.5589 296.5046 14.96610179385846
FORMOSAT 7-5            
1 44358U 19036V   26195.00559899  .00001521  00000+0  10448-3 0  9999
2 44358  23.9985  87.5620 0000433 125.4285 234.6256 14.96589152386372
METEOR-M2 2             
1 44387U 19038A   26195.14888375  .00000254  00000+0  12980-3 0  9997
2 44387  98.9152 182.8340 0000808   6.1083 354.0105 14.24373615365134
GLOBAL-4                
1 44499U 19054E   26194.93825831  .00037606  00000+0  34698-3 0  9994
2 44499  45.0060  81.7484 0005181 188.4119 171.6693 15.66983770384556
ZY-1 02D                
1 44528U 19059A   26195.18627867 -.00000118  00000+0 -25469-4 0  9996
2 44528  98.6720 256.7368 0003149 303.0974  56.9908 14.35267739358210
TAURUS-1 (JINNIUZUO 1)  
1 44530U 19059C   26195.15660984  .00003183  00000+0  51154-3 0  9995
2 44530  98.6426   1.6655 0007942 218.9233 141.1402 14.72361952362617
ZHUHAI-1 03B            
1 44536U 19060C   26195.21330706  .00020556  00000+0  30082-3 0  9996
2 44536  97.5548 354.4727 0008341 208.9707 151.1085 15.55592614380525
ZHUHAI-1 03D            
1 44538U 19060E   26195.19979071  .00023210  00000+0  39623-3 0  9999
2 44538  97.5395 346.3428 0007393 194.6859 165.4179 15.51301697380268
ZHUHAI-1 03E            
1 44539U 19060F   26195.18289493  .00010703  00000+0  25393-3 0  9993
2 44539  97.5638 346.0876 0004382 281.1037  78.9717 15.41901137379929
GAOFEN-7                
1 44703U 19072A   26195.16554352  .00002258  00000+0  10320-3 0  9996
2 44703  97.5708 255.8943 0017499 307.7995  52.1656 15.21510390371746
JILIN-1 GAOFEN 2A       
1 44777U 19075A   26195.17147076  .00008720  00000+0  22065-3 0  9991
2 44777  97.4968 279.6041 0005275 358.9588   1.1645 15.39997550369039
NINGXIA-1 1             
1 44779U 19076A   26195.18824870 -.00000078  00000+0  33781-4 0  9996
2 44779  45.0065  59.1883 0011574 285.2129  74.7426 14.02041901341644
NINGXIA-1 5             
1 44783U 19076E   26195.20061039  .00000019  00000+0  96921-4 0  9993
2 44783  45.0065  58.4659 0011420 276.0093  83.9439 14.02090392341565
KL-ALPHA A              
1 44785U 19077A   26195.20039439  .00000084  00000+0  10261-3 0  9999
2 44785  88.9235 219.6101 0012502  39.3359 320.8701 13.56045688329390
CARTOSAT-3              
1 44804U 19081A   26194.76601593  .00002780  00000+0  13459-3 0  9999
2 44804  97.4302 256.2032 0013222  65.4929 294.7683 15.19319394367507
JILIN-1 GAOFEN 2B       
1 44836U 19086A   26195.18872295  .00003241  00000+0  14907-3 0  9997
2 44836  97.4876 267.0136 0013164 219.4985 140.5292 15.20992926364591
TIANQIN 1 (CAS-6)       
1 44879U 19093A   26195.18727969  .00001960  00000+0  18182-3 0  9994
2 44879  97.7812 278.8329 0010035 331.4463  28.6207 14.95558012356087
ETRSS-1                 
1 44880U 19093B   26195.18615193  .00002101  00000+0  19236-3 0  9990
2 44880  97.7829 279.3150 0010137 331.3510  28.7153 14.96005381356099
TIANYAN 01              
1 44881U 19093C   26195.17132380  .00001007  00000+0  11955-3 0  9996
2 44881  97.7531 266.7442 0013683   5.1756 354.9598 14.86562658355428
TIANYAN 02              
1 44882U 19093D   26195.23916591  .00002985  00000+0  21164-3 0  9997
2 44882  97.7942 290.2948 0012145 292.3484  67.6455 15.05525858356680
CBERS 4A                
1 44883U 19093E   26195.17473181  .00000344  00000+0  50765-4 0  9991
2 44883  98.0189 262.6365 0001405 132.4366 227.6965 14.81443737355078
WEILAI 1R               
1 44884U 19093F   26195.19107537  .00002680  00000+0  21505-3 0  9997
2 44884  97.7896 285.1252 0015649 311.7083  48.2801 15.00862610356476
FLORIPASAT-1            
1 44885U 19093G   26195.23667248  .00002100  00000+0  15586-3 0  9992
2 44885  97.7935 289.6715 0010890 345.7424  14.3492 15.04137588356713
SHUNTIAN                
1 44886U 19093H   26195.17726096  .00001153  00000+0  10998-3 0  9992
2 44886  97.8011 283.2014 0011061 340.8599  19.2205 14.95274659356213
ELEKTRO-L 3             
1 44903U 19095A   26195.03288838 -.00000102  00000+0  00000+0 0  9999
2 44903   0.3229  82.1013 0001114  20.0512 277.5742  1.00271062 23974
GONETS-M 14             
1 44905U 19096A   26195.17609095  .00000082  00000+0  52038-3 0  9997
2 44905  82.5227  67.9076 0014416  92.5080 267.7650 12.42870824297037
GONETS-M 15             
1 44906U 19096B   26195.12492882  .00000076  00000+0  47319-3 0  9996
2 44906  82.5247  68.4051 0016062 114.3904 245.8854 12.42883102296996
GONETS-M 16             
1 44907U 19096C   26195.15074433  .00000111  00000+0  73253-3 0  9994
2 44907  82.5192  67.3287 0010970 153.5294 206.6348 12.42892611296981
